{
  "type": "FeatureCollection",
  "features": [
    {
      "type": "Feature",
      "properties": {
        "norad_id": 30505,
        "name": "FENGYUN 1C DEB",
        "group": "fengyun-1c-debris",
        "lat": 2.7526694597351766,
        "lon": 77.60917453104976,
        "alt_km": 862.0687787563629,
        "timestamp": "2025-12-24T05:51:19.885254+00:00",
        "meta_object_name": "FENGYUN 1C DEB",
        "meta_object_id": "1999-025AHT",
        "meta_epoch": "2025-12-23T11:50:32.743392",
        "meta_mean_motion": 14.22108274,
        "meta_eccentricity": 0.00642587,
        "meta_inclination": 98.9253,
        "meta_ra_of_asc_node": 77.2827,
        "meta_arg_of_pericenter": 211.6093,
        "meta_mean_anomaly": 270.6258,
        "meta_ephemeris_type": 0,
        "meta_classification_type": "U",
        "meta_norad_cat_id": 30505,
        "meta_element_set_no": 999,
        "meta_rev_at_epoch": 97076,
        "meta_bstar": 0.0016025341,
        "meta_mean_motion_dot": 3.579e-05,
        "meta_mean_motion_ddot": 0,
        "tle_line1": "1 30505U 99025AHT 25357.49343453  .00003579  00000+0  16025-2 0  9994",
        "tle_line2": "2 30505  98.9253  77.2827 0064258 211.6093 270.6258 14.22108274970761"
      },
      "geometry": {
        "type": "Point",
        "coordinates": [
          77.60917453104976,
          2.7526694597351766
        ]
      }
    },
    {
      "type": "Feature",
      "properties": {
        "norad_id": 30506,
        "name": "FENGYUN 1C DEB",
        "group": "fengyun-1c-debris",
        "lat": -15.324610245673195,
        "lon": -179.43442558645785,
        "alt_km": 893.5532938425322,
        "timestamp": "2025-12-24T05:51:19.885264+00:00",
        "meta_object_name": "FENGYUN 1C DEB",
        "meta_object_id": "1999-025AHU",
        "meta_epoch": "2025-12-23T23:54:21.076992",
        "meta_mean_motion": 14.08663177,
        "meta_eccentricity": 0.00698308,
        "meta_inclination": 98.7569,
        "meta_ra_of_asc_node": 2.7456,
        "meta_arg_of_pericenter": 315.9856,
        "meta_mean_anomaly": 63.6424,
        "meta_ephemeris_type": 0,
        "meta_classification_type": "U",
        "meta_norad_cat_id": 30506,
        "meta_element_set_no": 999,
        "meta_rev_at_epoch": 96980,
        "meta_bstar": 0.00025798684,
        "meta_mean_motion_dot": 4.11e-06,
        "meta_mean_motion_ddot": 0,
        "tle_line1": "1 30506U 99025AHU 25357.99607728  .00000411  00000+0  25799-3 0  9999",
        "tle_line2": "2 30506  98.7569   2.7456 0069830 315.9856  63.6424 14.08663177969807"
      },
      "geometry": {
        "type": "Point",
        "coordinates": [
          -179.43442558645785,
          -15.324610245673195
        ]
      }
    },
    {
      "type": "Feature",
      "properties": {
        "norad_id": 30507,
        "name": "FENGYUN 1C DEB",
        "group": "fengyun-1c-debris",
        "lat": 38.49811760742247,
        "lon": -109.93661532441789,
        "alt_km": 752.7452288400764,
        "timestamp": "2025-12-24T05:51:19.885277+00:00",
        "meta_object_name": "FENGYUN 1C DEB",
        "meta_object_id": "1999-025AHV",
        "meta_epoch": "2025-12-22T11:18:45.124704",
        "meta_mean_motion": 14.13218957,
        "meta_eccentricity": 0.01284187,
        "meta_inclination": 99.0129,
        "meta_ra_of_asc_node": 61.0259,
        "meta_arg_of_pericenter": 149.106,
        "meta_mean_anomaly": 338.4187,
        "meta_ephemeris_type": 0,
        "meta_classification_type": "U",
        "meta_norad_cat_id": 30507,
        "meta_element_set_no": 999,
        "meta_rev_at_epoch": 96635,
        "meta_bstar": 0.00099570229,
        "meta_mean_motion_dot": 1.972e-05,
        "meta_mean_motion_ddot": 0,
        "tle_line1": "1 30507U 99025AHV 25356.47135561  .00001972  00000+0  99570-3 0  9994",
        "tle_line2": "2 30507  99.0129  61.0259 0128418 149.1060 338.4187 14.13218957966359"
      },
      "geometry": {
        "type": "Point",
        "coordinates": [
          -109.93661532441789,
          38.49811760742247
        ]
      }
    },
    {
      "type": "Feature",
      "properties": {
        "norad_id": 30509,
        "name": "FENGYUN 1C DEB",
        "group": "fengyun-1c-debris",
        "lat": 80.71713820462627,
        "lon": 163.7103426328591,
        "alt_km": 816.8370485720261,
        "timestamp": "2025-12-24T05:51:19.885288+00:00",
        "meta_object_name": "FENGYUN 1C DEB",
        "meta_object_id": "1999-025AHX",
        "meta_epoch": "2025-12-22T09:57:09.685152",
        "meta_mean_motion": 14.0771344,
        "meta_eccentricity": 0.01023458,
        "meta_inclination": 98.4652,
        "meta_ra_of_asc_node": 227.6575,
        "meta_arg_of_pericenter": 36.2478,
        "meta_mean_anomaly": 143.7539,
        "meta_ephemeris_type": 0,
        "meta_classification_type": "U",
        "meta_norad_cat_id": 30509,
        "meta_element_set_no": 999,
        "meta_rev_at_epoch": 95858,
        "meta_bstar": 0.0021282771,
        "meta_mean_motion_dot": 3.738e-05,
        "meta_mean_motion_ddot": 0,
        "tle_line1": "1 30509U 99025AHX 25356.41469543  .00003738  00000+0  21283-2 0  9997",
        "tle_line2": "2 30509  98.4652 227.6575 0102345  36.2478 143.7539 14.07713440958580"
      },
      "geometry": {
        "type": "Point",
        "coordinates": [
          163.7103426328591,
          80.71713820462627
        ]
      }
    },
    {
      "type": "Feature",
      "properties": {
        "norad_id": 30510,
        "name": "FENGYUN 1C DEB",
        "group": "fengyun-1c-debris",
        "lat": -9.746554439281674,
        "lon": 12.24387824068088,
        "alt_km": 899.4231891625323,
        "timestamp": "2025-12-24T05:51:19.885298+00:00",
        "meta_object_name": "FENGYUN 1C DEB",
        "meta_object_id": "1999-025AHY",
        "meta_epoch": "2025-12-23T23:22:40.714176",
        "meta_mean_motion": 14.12903372,
        "meta_eccentricity": 0.00787535,
        "meta_inclination": 99.2449,
        "meta_ra_of_asc_node": 10.3622,
        "meta_arg_of_pericenter": 135.0072,
        "meta_mean_anomaly": 283.6993,
        "meta_ephemeris_type": 0,
        "meta_classification_type": "U",
        "meta_norad_cat_id": 30510,
        "meta_element_set_no": 999,
        "meta_rev_at_epoch": 96733,
        "meta_bstar": 0.0014386039,
        "meta_mean_motion_dot": 2.712e-05,
        "meta_mean_motion_ddot": 0,
        "tle_line1": "1 30510U 99025AHY 25357.97408234  .00002712  00000+0  14386-2 0  9998",
        "tle_line2": "2 30510  99.2449  10.3622 0078753 135.0072 283.6993 14.12903372967330"
      },
      "geometry": {
        "type": "Point",
        "coordinates": [
          12.24387824068088,
          -9.746554439281674
        ]
      }
    },
    {
      "type": "Feature",
      "properties": {
        "norad_id": 30514,
        "name": "FENGYUN 1C DEB",
        "group": "fengyun-1c-debris",
        "lat": -55.707446470739534,
        "lon": 34.00561572001892,
        "alt_km": 838.2263879441289,
        "timestamp": "2025-12-24T05:51:19.885311+00:00",
        "meta_object_name": "FENGYUN 1C DEB",
        "meta_object_id": "1999-025AJC",
        "meta_epoch": "2025-12-23T21:44:53.115648",
        "meta_mean_motion": 14.3439023,
        "meta_eccentricity": 0.0174195,
        "meta_inclination": 98.4121,
        "meta_ra_of_asc_node": 21.1444,
        "meta_arg_of_pericenter": 61.06,
        "meta_mean_anomaly": 300.793,
        "meta_ephemeris_type": 0,
        "meta_classification_type": "U",
        "meta_norad_cat_id": 30514,
        "meta_element_set_no": 999,
        "meta_rev_at_epoch": 98385,
        "meta_bstar": 0.00046478595,
        "meta_mean_motion_dot": 1.505e-05,
        "meta_mean_motion_ddot": 0,
        "tle_line1": "1 30514U 99025AJC 25357.90617032  .00001505  00000+0  46479-3 0  9991",
        "tle_line2": "2 30514  98.4121  21.1444 0174195  61.0600 300.7930 14.34390230983850"
      },
      "geometry": {
        "type": "Point",
        "coordinates": [
          34.00561572001892,
          -55.707446470739534
        ]
      }
    },
    {
      "type": "Feature",
      "properties": {
        "norad_id": 30515,
        "name": "FENGYUN 1C DEB",
        "group": "fengyun-1c-debris",
        "lat": 77.34275855088744,
        "lon": -168.79033731026024,
        "alt_km": 712.3031925778341,
        "timestamp": "2025-12-24T05:51:19.885322+00:00",
        "meta_object_name": "FENGYUN 1C DEB",
        "meta_object_id": "1999-025AJD",
        "meta_epoch": "2025-12-23T08:35:59.927136",
        "meta_mean_motion": 13.63827177,
        "meta_eccentricity": 0.04970055,
        "meta_inclination": 98.5092,
        "meta_ra_of_asc_node": 232.2372,
        "meta_arg_of_pericenter": 46.5465,
        "meta_mean_anomaly": 4.7977,
        "meta_ephemeris_type": 0,
        "meta_classification_type": "U",
        "meta_norad_cat_id": 30515,
        "meta_element_set_no": 999,
        "meta_rev_at_epoch": 93475,
        "meta_bstar": 0.00097294919,
        "meta_mean_motion_dot": 1.759e-05,
        "meta_mean_motion_ddot": 0,
        "tle_line1": "1 30515U 99025AJD 25357.35833249  .00001759  00000+0  97295-3 0  9994",
        "tle_line2": "2 30515  98.5092 232.2372 0497005  46.5465   4.7977 13.63827177934752"
      },
      "geometry": {
        "type": "Point",
        "coordinates": [
          -168.79033731026024,
          77.34275855088744
        ]
      }
    }
  ]
}